ATLAS CENTAUR 2         
1 00694U 63047A   26005.62188918  .00002232  00000+0  25850-3 0  9996
2 00694  30.3552 188.0440 0548735 244.5803 109.7033 14.11871557122707
THOR AGENA D R/B        
1 00733U 64002A   26005.58579066  .00000381  00000+0  15306-3 0  9993
2 00733  99.1216  15.4941 0033842  82.3668 278.1357 14.33977273229259
SL-3 R/B                
1 00877U 64053B   26005.66256015  .00000454  00000+0  11238-3 0  9994
2 00877  65.0766 156.0077 0075903 312.4291  47.0404 14.61298480257585
SL-8 R/B                
1 02802U 67045B   26005.59966390  .00000565  00000+0  16391-3 0  9992
2 02802  74.0118 105.9105 0063141 129.1444 231.5350 14.45566070 79908
SL-8 R/B                
1 03230U 68040B   26005.60875261  .00005040  00000+0  37730-3 0  9995
2 03230  74.0317  82.5384 0026351 280.7321  79.0901 15.02736409 80531
OAO 2                   
1 03597U 68110A   26004.69265015  .00000458  00000+0  12873-3 0  9996
2 03597  34.9930 262.5237 0005007  38.8634 321.2416 14.47261874  9827
ISIS 1                  
1 03669U 69009A   26005.42838327  .00000475  00000+0  33809-3 0  9999
2 03669  88.4508 162.2061 1707439 216.8340 130.2615 11.30371156341387
SERT 2                  
1 04327U 70009A   26005.61461818  .00000039  00000+0  11042-3 0  9992
2 04327  99.2682 312.1864 0004620 335.1267 197.6892 13.58721751771320
SL-3 R/B                
1 05118U 71028B   26005.61030414  .00047167  00000+0  66467-3 0  9991
2 05118  81.2391 129.6395 0018465 154.9351 205.2800 15.56214454978848
ASTEX 1                 
1 05560U 71089A   26005.36468718  .00000938  00000+0  23901-3 0  9994
2 05560  92.7156 131.2653 0013706 302.8334  57.1551 14.50678927853121
SL-8 R/B                
1 05730U 71119B   26005.16338988  .00011210  00000+0  58152-3 0  9991
2 05730  73.8903 294.3211 0557184 273.8775  79.8882 14.36333716646362
OAO 3 (COPERNICUS)      
1 06153U 72065A   26005.21999885  .00000651  00000+0  13825-3 0  9992
2 06153  35.0066 298.9109 0006575 354.9578 153.5687 14.59933586836914
