CCSDS_OMM_VERS = 2.0
CREATION_DATE  = 
ORIGINATOR     = 

OBJECT_NAME    = ATLAS CENTAUR 2
OBJECT_ID      = 1963-047A
CENTER_NAME    = EARTH
REF_FRAME      = TEME
TIME_SYSTEM    = UTC
MEAN_ELEMENT_THEORY = SGP/SGP4

EPOCH          = 2026-01-05T14:55:31.225152
MEAN_MOTION    = 14.11871557
ECCENTRICITY   = .05487357
INCLINATION    = 30.3552
RA_OF_ASC_NODE = 188.0440
ARG_OF_PERICENTER = 244.5803
MEAN_ANOMALY   = 109.7033

EPHEMERIS_TYPE = 0
CLASSIFICATION_TYPE = U
NORAD_CAT_ID   = 694
ELEMENT_SET_NO = 999
REV_AT_EPOCH   = 12270
BSTAR          = .25850266E-3
MEAN_MOTION_DOT = .2232E-4
MEAN_MOTION_DDOT = 0

CCSDS_OMM_VERS = 2.0
CREATION_DATE  = 
ORIGINATOR     = 

OBJECT_NAME    = THOR AGENA D R/B
OBJECT_ID      = 1964-002A
CENTER_NAME    = EARTH
REF_FRAME      = TEME
TIME_SYSTEM    = UTC
MEAN_ELEMENT_THEORY = SGP/SGP4

EPOCH          = 2026-01-05T14:03:32.313024
MEAN_MOTION    = 14.33977273
ECCENTRICITY   = .00338428
INCLINATION    = 99.1216
RA_OF_ASC_NODE = 15.4941
ARG_OF_PERICENTER = 82.3668
MEAN_ANOMALY   = 278.1357

EPHEMERIS_TYPE = 0
CLASSIFICATION_TYPE = U
NORAD_CAT_ID   = 733
ELEMENT_SET_NO = 999
REV_AT_EPOCH   = 22925
BSTAR          = .15306323E-3
MEAN_MOTION_DOT = .381E-5
MEAN_MOTION_DDOT = 0

CCSDS_OMM_VERS = 2.0
CREATION_DATE  = 
ORIGINATOR     = 

OBJECT_NAME    = SL-3 R/B
OBJECT_ID      = 1964-053B
CENTER_NAME    = EARTH
REF_FRAME      = TEME
TIME_SYSTEM    = UTC
MEAN_ELEMENT_THEORY = SGP/SGP4

EPOCH          = 2026-01-05T15:54:05.196960
MEAN_MOTION    = 14.61298480
ECCENTRICITY   = .0075903
INCLINATION    = 65.0766
RA_OF_ASC_NODE = 156.0077
ARG_OF_PERICENTER = 312.4291
MEAN_ANOMALY   = 47.0404

EPHEMERIS_TYPE = 0
CLASSIFICATION_TYPE = U
NORAD_CAT_ID   = 877
ELEMENT_SET_NO = 999
REV_AT_EPOCH   = 25758
BSTAR          = .11238163E-3
MEAN_MOTION_DOT = .454E-5
MEAN_MOTION_DDOT = 0

CCSDS_OMM_VERS = 2.0
CREATION_DATE  = 
ORIGINATOR     = 

OBJECT_NAME    = SL-8 R/B
OBJECT_ID      = 1967-045B
CENTER_NAME    = EARTH
REF_FRAME      = TEME
TIME_SYSTEM    = UTC
MEAN_ELEMENT_THEORY = SGP/SGP4

EPOCH          = 2026-01-05T14:23:30.960960
MEAN_MOTION    = 14.45566070
ECCENTRICITY   = .00631417
INCLINATION    = 74.0118
RA_OF_ASC_NODE = 105.9105
ARG_OF_PERICENTER = 129.1444
MEAN_ANOMALY   = 231.5350

EPHEMERIS_TYPE = 0
CLASSIFICATION_TYPE = U
NORAD_CAT_ID   = 2802
ELEMENT_SET_NO = 999
REV_AT_EPOCH   = 7990
BSTAR          = .16391077E-3
MEAN_MOTION_DOT = .565E-5
MEAN_MOTION_DDOT = 0

CCSDS_OMM_VERS = 2.0
CREATION_DATE  = 
ORIGINATOR     = 

OBJECT_NAME    = SL-8 R/B
OBJECT_ID      = 1968-040B
CENTER_NAME    = EARTH
REF_FRAME      = TEME
TIME_SYSTEM    = UTC
MEAN_ELEMENT_THEORY = SGP/SGP4

EPOCH          = 2026-01-05T14:36:36.225504
MEAN_MOTION    = 15.02736409
ECCENTRICITY   = .00263519
INCLINATION    = 74.0317
RA_OF_ASC_NODE = 82.5384
ARG_OF_PERICENTER = 280.7321
MEAN_ANOMALY   = 79.0901

EPHEMERIS_TYPE = 0
CLASSIFICATION_TYPE = U
NORAD_CAT_ID   = 3230
ELEMENT_SET_NO = 999
REV_AT_EPOCH   = 8053
BSTAR          = .37730196E-3
MEAN_MOTION_DOT = .504E-4
MEAN_MOTION_DDOT = 0

CCSDS_OMM_VERS = 2.0
CREATION_DATE  = 
ORIGINATOR     = 

OBJECT_NAME    = OAO 2
OBJECT_ID      = 1968-110A
CENTER_NAME    = EARTH
REF_FRAME      = TEME
TIME_SYSTEM    = UTC
MEAN_ELEMENT_THEORY = SGP/SGP4

EPOCH          = 2026-01-04T16:37:24.972960
MEAN_MOTION    = 14.47261874
ECCENTRICITY   = .00050075
INCLINATION    = 34.9930
RA_OF_ASC_NODE = 262.5237
ARG_OF_PERICENTER = 38.8634
MEAN_ANOMALY   = 321.2416

EPHEMERIS_TYPE = 0
CLASSIFICATION_TYPE = U
NORAD_CAT_ID   = 3597
ELEMENT_SET_NO = 999
REV_AT_EPOCH   = 982
BSTAR          = .12872931E-3
MEAN_MOTION_DOT = .458E-5
MEAN_MOTION_DDOT = 0

CCSDS_OMM_VERS = 2.0
CREATION_DATE  = 
ORIGINATOR     = 

OBJECT_NAME    = ISIS 1
OBJECT_ID      = 1969-009A
CENTER_NAME    = EARTH
REF_FRAME      = TEME
TIME_SYSTEM    = UTC
MEAN_ELEMENT_THEORY = SGP/SGP4

EPOCH          = 2026-01-05T10:16:52.314528
MEAN_MOTION    = 11.30371156
ECCENTRICITY   = .17074399
INCLINATION    = 88.4508
RA_OF_ASC_NODE = 162.2061
ARG_OF_PERICENTER = 216.8340
MEAN_ANOMALY   = 130.2615

EPHEMERIS_TYPE = 0
CLASSIFICATION_TYPE = U
NORAD_CAT_ID   = 3669
ELEMENT_SET_NO = 999
REV_AT_EPOCH   = 34138
BSTAR          = .33809466E-3
MEAN_MOTION_DOT = .475E-5
MEAN_MOTION_DDOT = 0

CCSDS_OMM_VERS = 2.0
CREATION_DATE  = 
ORIGINATOR     = 

OBJECT_NAME    = SERT 2
OBJECT_ID      = 1970-009A
CENTER_NAME    = EARTH
REF_FRAME      = TEME
TIME_SYSTEM    = UTC
MEAN_ELEMENT_THEORY = SGP/SGP4

EPOCH          = 2026-01-05T14:45:03.010752
MEAN_MOTION    = 13.58721751
ECCENTRICITY   = .000462
INCLINATION    = 99.2682
RA_OF_ASC_NODE = 312.1864
ARG_OF_PERICENTER = 335.1267
MEAN_ANOMALY   = 197.6892

EPHEMERIS_TYPE = 0
CLASSIFICATION_TYPE = U
NORAD_CAT_ID   = 4327
ELEMENT_SET_NO = 999
REV_AT_EPOCH   = 77132
BSTAR          = .1104242E-3
MEAN_MOTION_DOT = .39E-6
MEAN_MOTION_DDOT = 0

CCSDS_OMM_VERS = 2.0
CREATION_DATE  = 
ORIGINATOR     = 

OBJECT_NAME    = SL-3 R/B
OBJECT_ID      = 1971-028B
CENTER_NAME    = EARTH
REF_FRAME      = TEME
TIME_SYSTEM    = UTC
MEAN_ELEMENT_THEORY = SGP/SGP4

EPOCH          = 2026-01-05T14:38:50.277696
MEAN_MOTION    = 15.56214454
ECCENTRICITY   = .0018465
INCLINATION    = 81.2391
RA_OF_ASC_NODE = 129.6395
ARG_OF_PERICENTER = 154.9351
MEAN_ANOMALY   = 205.2800

EPHEMERIS_TYPE = 0
CLASSIFICATION_TYPE = U
NORAD_CAT_ID   = 5118
ELEMENT_SET_NO = 999
REV_AT_EPOCH   = 97884
BSTAR          = .66467299E-3
MEAN_MOTION_DOT = .47167E-3
MEAN_MOTION_DDOT = 0

CCSDS_OMM_VERS = 2.0
CREATION_DATE  = 
ORIGINATOR     = 

OBJECT_NAME    = ASTEX 1
OBJECT_ID      = 1971-089A
CENTER_NAME    = EARTH
REF_FRAME      = TEME
TIME_SYSTEM    = UTC
MEAN_ELEMENT_THEORY = SGP/SGP4

EPOCH          = 2026-01-05T08:45:08.972352
MEAN_MOTION    = 14.50678927
ECCENTRICITY   = .00137064
INCLINATION    = 92.7156
RA_OF_ASC_NODE = 131.2653
ARG_OF_PERICENTER = 302.8334
MEAN_ANOMALY   = 57.1551

EPHEMERIS_TYPE = 0
CLASSIFICATION_TYPE = U
NORAD_CAT_ID   = 5560
ELEMENT_SET_NO = 999
REV_AT_EPOCH   = 85312
BSTAR          = .23900685E-3
MEAN_MOTION_DOT = .938E-5
MEAN_MOTION_DDOT = 0

CCSDS_OMM_VERS = 2.0
CREATION_DATE  = 
ORIGINATOR     = 

OBJECT_NAME    = SL-8 R/B
OBJECT_ID      = 1971-119B
CENTER_NAME    = EARTH
REF_FRAME      = TEME
TIME_SYSTEM    = UTC
MEAN_ELEMENT_THEORY = SGP/SGP4

EPOCH          = 2026-01-05T03:55:16.885632
MEAN_MOTION    = 14.36333716
ECCENTRICITY   = .0557184
INCLINATION    = 73.8903
RA_OF_ASC_NODE = 294.3211
ARG_OF_PERICENTER = 273.8775
MEAN_ANOMALY   = 79.8882

EPHEMERIS_TYPE = 0
CLASSIFICATION_TYPE = U
NORAD_CAT_ID   = 5730
ELEMENT_SET_NO = 999
REV_AT_EPOCH   = 64636
BSTAR          = .58152E-3
MEAN_MOTION_DOT = .1121E-3
MEAN_MOTION_DDOT = 0

CCSDS_OMM_VERS = 2.0
CREATION_DATE  = 
ORIGINATOR     = 

OBJECT_NAME    = OAO 3 (COPERNICUS)
OBJECT_ID      = 1972-065A
CENTER_NAME    = EARTH
REF_FRAME      = TEME
TIME_SYSTEM    = UTC
MEAN_ELEMENT_THEORY = SGP/SGP4

EPOCH          = 2026-01-05T05:16:47.900640
MEAN_MOTION    = 14.59933586
ECCENTRICITY   = .0006575
INCLINATION    = 35.0066
RA_OF_ASC_NODE = 298.9109
ARG_OF_PERICENTER = 354.9578
MEAN_ANOMALY   = 153.5687

EPHEMERIS_TYPE = 0
CLASSIFICATION_TYPE = U
NORAD_CAT_ID   = 6153
ELEMENT_SET_NO = 999
REV_AT_EPOCH   = 83691
BSTAR          = .13825E-3
MEAN_MOTION_DOT = .651E-5
MEAN_MOTION_DDOT = 0

